*******************************************************************************
JPL/HORIZONS                674 Rachele (A908 UK)          2020-Jun-22 09:24:21
Rec #:     674 (+COV) Soln.date: 2020-May-20_01:10:35   # obs: 1989 (1901-2020)
 
IAU76/J2000 helio. ecliptic osc. elements (au, days, deg., period=Julian yrs):
 
  EPOCH=  2455426.5 ! 2010-Aug-18.00 (TDB)         Residual RMS= .41054
   EC= .194359227360587    QR= 2.355693891474446   TP= 2455029.7574565834
   OM= 58.21008187926228   W=  42.29475197007819   IN= 13.50961458491941
   A= 2.924000337963037    MA= 78.20719674260421   ADIST= 3.492306784451628
   PER= 5.00005            N= .197123288           ANGMOM= .028854155
   DAN= 2.4599             DDN= 3.28595            L= 99.70573760000001
   B= 9.0447387            MOID= 1.39086998        TP= 2009-Jul-17.2574565834
 
Asteroid physical parameters (km, seconds, rotational period in hours):
   GM= n.a.                RAD= 48.0855            ROTPER= 30.982
   H= 7.6                  G= .150                 B-V= .840
                           ALBEDO= .206            STYP= S
 
ASTEROID comments: 
1: soln ref.= JPL#36, OCC=0
2: source=ORB
*******************************************************************************
 
 
*******************************************************************************
Ephemeris / WWW_USER Mon Jun 22 09:24:21 2020 Pasadena, USA      / Horizons
*******************************************************************************
Target body name: 674 Rachele (A908 UK)           {source: JPL#36}
Center body name: Solar System Barycenter (0)     {source: DE431}
Center-site name: BODY CENTER
*******************************************************************************
Start time      : A.D. 1969-Jun-28 00:00:00.0000 TDB
Stop  time      : A.D. 2071-May-04 00:00:00.0000 TDB
Step-size       : 7200 minutes
*******************************************************************************
Center geodetic : 0.00000000,0.00000000,0.0000000 {E-lon(deg),Lat(deg),Alt(km)}
Center cylindric: 0.00000000,0.00000000,0.0000000 {E-lon(deg),Dxy(km),Dz(km)}
Center radii    : (undefined)                                                  
Small perturbers: Yes                             {source: SB431-N16}
Output units    : AU-D
Output type     : GEOMETRIC cartesian states
Output format   : 2 (position and velocity)
Reference frame : Ecliptic of J2000.0
*******************************************************************************
Initial IAU76/J2000 heliocentric ecliptic osculating elements (au, days, deg.):
  EPOCH=  2455426.5 ! 2010-Aug-18.00 (TDB)         Residual RMS= .41054        
   EC= .194359227360587    QR= 2.355693891474446   TP= 2455029.7574565834      
   OM= 58.21008187926228   W=  42.29475197007819   IN= 13.50961458491941       
  Equivalent ICRF heliocentric equatorial cartesian coordinates (au, au/d):
   X=-2.681056838440143E+00  Y=-1.149406030963140E+00  Z=-4.978608274257315E-02
  VX= 1.568894051635553E-03 VY=-8.401493613363398E-03 VZ=-5.348561821970573E-03
Asteroid physical parameters (km, seconds, rotational period in hours):        
   GM= n.a.                RAD= 48.0855            ROTPER= 30.982              
   H= 7.6                  G= .150                 B-V= .840                   
                           ALBEDO= .206            STYP= S                     
*******************************************************************************
            JDTDB,            Calendar Date (TDB),        delta-T,                      X,                      Y,                      Z,                     VX,                     VY,                     VZ,
******************************************************************************************************************************************************************************************************************
$$SOE
2447260.500000000, A.D. 1988-Apr-09 00:00:00.0000,      56.185648,  2.887009452036945E+00, -5.781007219937678E-01, -6.683903294428748E-01,  2.390768417013047E-04,  9.640208407765692E-03,  1.153744517169507E-03,
2447265.500000000, A.D. 1988-Apr-14 00:00:00.0000,      56.185630,  2.887816643492636E+00, -5.298237131056626E-01, -6.625320725303028E-01,  8.354957155019900E-05,  9.670208943170311E-03,  1.189561675192035E-03,
2447270.500000000, A.D. 1988-Apr-19 00:00:00.0000,      56.185602,  2.887842458063071E+00, -4.814025378019171E-01, -6.564946862816317E-01, -7.347146937074109E-05,  9.697866304802313E-03,  1.225394666242854E-03,
2447275.500000000, A.D. 1988-Apr-24 00:00:00.0000,      56.185561,  2.887079464626748E+00, -4.328490427338567E-01, -6.502781156292363E-01, -2.319709686615796E-04,  9.723128031176059E-03,  1.261233787524182E-03,
2447280.500000000, A.D. 1988-Apr-29 00:00:00.0000,      56.185507,  2.885520311968766E+00, -3.841753390788121E-01, -6.438823549860916E-01, -3.919322654592506E-04,  9.745940775241844E-03,  1.297068947635436E-03,
2447285.500000000, A.D. 1988-May-04 00:00:00.0000,      56.185441,  2.883157735684612E+00, -3.353938069380072E-01, -6.373074502184080E-01, -5.533372854330602E-04,  9.766250316734762E-03,  1.332889654677846E-03,
2447290.500000000, A.D. 1988-May-09 00:00:00.0000,      56.185366,  2.879984565414744E+00, -2.865170996671688E-01, -6.305535006783162E-01, -7.161664735766003E-04,  9.784001576741762E-03,  1.368685004162349E-03,
2447295.500000000, A.D. 1988-May-14 00:00:00.0000,      56.185282,  2.875993732419452E+00, -2.375581481281452E-01, -6.236206612970469E-01, -8.803987253662479E-04,  9.799138634824123E-03,  1.404443666933990E-03,
2447300.500000000, A.D. 1988-May-19 00:00:00.0000,      56.185190,  2.871178277501765E+00, -1.885301648474229E-01, -6.165091447382570E-01, -1.046011316347957E-03,  9.811604749200394E-03,  1.440153877183666E-03,
2447305.500000000, A.D. 1988-May-24 00:00:00.0000,      56.185089,  2.865531359286905E+00, -1.394466480655315E-01, -6.092192236111877E-01, -1.212979829900203E-03,  9.821342380229392E-03,  1.475803420495467E-03,
2447310.500000000, A.D. 1988-May-29 00:00:00.0000,      56.184978,  2.859046262867702E+00, -9.032138566055474E-02, -6.017512327435433E-01, -1.381278083085725E-03,  9.828293217304730E-03,  1.511379621915215E-03,
2447315.500000000, A.D. 1988-Jun-03 00:00:00.0000,      56.184860,  2.851716408825405E+00, -4.116845892831451E-02, -5.941055715138984E-01, -1.550878050662221E-03,  9.832398209324633E-03,  1.546869334077411E-03,
2447320.500000000, A.D. 1988-Jun-08 00:00:00.0000,      56.184736,  2.843535362634821E+00,  7.997753799170768E-03, -5.862827062432221E-01, -1.721749787353478E-03,  9.833597598949976E-03,  1.582258925441075E-03,
2447325.500000000, A.D. 1988-Jun-13 00:00:00.0000,      56.184609,  2.834496844462243E+00,  5.716257371648086E-02, -5.782831726448407E-01, -1.893861348483291E-03,  9.831830960888242E-03,  1.617534268686186E-03,
2447330.500000000, A.D. 1988-Jun-18 00:00:00.0000,      56.184478,  2.824594739364083E+00,  1.063110183095872E-01, -5.701075783319127E-01, -2.067178709073975E-03,  9.827037244450885E-03,  1.652680729321905E-03,
2447335.500000000, A.D. 1988-Jun-23 00:00:00.0000,      56.184343,  2.813823107893632E+00,  1.554277983446452E-01, -5.617566053812233E-01, -2.241665681515806E-03,  9.819154820638885E-03,  1.687683154558135E-03,
2447340.500000000, A.D. 1988-Jun-28 00:00:00.0000,      56.184204,  2.802176197122825E+00,  2.044973151040772E-01, -5.532310129518574E-01, -2.417283831916771E-03,  9.808121534015975E-03,  1.722525862491687E-03,
2447345.500000000, A.D. 1988-Jul-03 00:00:00.0000,      56.184063,  2.789648452085310E+00,  2.535036578945180E-01, -5.445316399570502E-01, -2.593992395244886E-03,  9.793874759621280E-03,  1.757192631657263E-03,
2447350.500000000, A.D. 1988-Jul-08 00:00:00.0000,      56.183923,  2.776234527646568E+00,  3.024306018523943E-01, -5.356594077872612E-01, -2.771748189396741E-03,  9.776351465141764E-03,  1.791666690996647E-03,
2447355.500000000, A.D. 1988-Jul-13 00:00:00.0000,      56.183785,  2.761929300805945E+00,  3.512616060738581E-01, -5.266153230822106E-01, -2.950505528418317E-03,  9.755488278506754E-03,  1.825930710322338E-03,
2447360.500000000, A.D. 1988-Jul-18 00:00:00.0000,      56.183648,  2.746727883433773E+00,  3.999798120966231E-01, -5.174004805490711E-01, -3.130216135336486E-03,  9.731221561100005E-03,  1.859966791420604E-03,
2447365.500000000, A.D. 1988-Jul-23 00:00:00.0000,      56.183513,  2.730625635444261E+00,  4.485680427628205E-01, -5.080160658231967E-01, -3.310829055077611E-03,  9.703487487070903E-03,  1.893756459954444E-03,
2447370.500000000, A.D. 1988-Jul-28 00:00:00.0000,      56.183381,  2.713618178403550E+00,  4.970088014951213E-01, -4.984633583672654E-01, -3.492290567395130E-03,  9.672222129416890E-03,  1.927280658174000E-03,
2447375.500000000, A.D. 1988-Aug-02 00:00:00.0000,      56.183252,  2.695701409574380E+00,  5.452842720205623E-01, -4.887437344051915E-01, -3.674544099247131E-03,  9.637361552916971E-03,  1.960519738284255E-03,
2447380.500000000, A.D. 1988-Aug-07 00:00:00.0000,      56.183130,  2.676871516399628E+00,  5.933763185751009E-01, -4.788586698873921E-01, -3.857530137060207E-03,  9.598841913433794E-03,  1.993453456587399E-03,
2447385.500000000, A.D. 1988-Aug-12 00:00:00.0000,      56.183015,  2.657124991422030E+00,  6.412664866205768E-01, -4.688097434826068E-01, -4.041186140190638E-03,  9.556599563646314E-03,  2.026060968780232E-03,
2447390.500000000, A.D. 1988-Aug-17 00:00:00.0000,      56.182908,  2.636458647631957E+00,  6.889360041076638E-01, -4.585986395898325E-01, -4.225446456298944E-03,  9.510571165813962E-03,  2.058320826627906E-03,
2447395.500000000, A.D. 1988-Aug-22 00:00:00.0000,      56.182807,  2.614869634232942E+00,  7.363657833211004E-01, -4.482271513632786E-01, -4.410242238921936E-03,  9.460693811969441E-03,  2.090210976094347E-03,
